NORAD_CAT_ID,OBJECT_NAME,OBJECT_TYPE,EPOCH,MEAN_MOTION,ECCENTRICITY,INCLINATION,RA_OF_ASC_NODE,ARG_OF_PERICENTER,MEAN_ANOMALY,BSTAR,MEAN_MOTION_DOT,MEAN_MOTION_DDOT,TLE_LINE0,TLE_LINE1,TLE_LINE2,SEMIMAJOR_AXIS,PERIOD,APOGEE,PERIGEE,DECAYED
52540.0,STARLINK-3940,PAYLOAD,2022-05-18 18:00:00,15.82113733,0.0001171,53.2185,269.3691,48.3003,290.1947,-0.0043358999999999,-0.00825561,0.0,0 STARLINK-3940,1 52540U 22051H   22138.75001157 -.00825561  00000-0 -43359-2 0  9993,2 52540  53.2185 269.3691 0001171  48.3003 290.1947 15.82113733  1306,6702.601,91.017,325.251,323.681,0.0
52540.0,STARLINK-3940,PAYLOAD,2022-05-19 06:00:00,15.81207052,0.0001188,53.2173,266.8604,52.6163,254.528,-0.0048343,-0.00876823,0.0,0 STARLINK-3940,1 52540U 22051H   22139.25001157 -.00876823  00000-0 -48343-2 0  9994,2 52540  53.2173 266.8604 0001188  52.6163 254.5280 15.81207052  1370,6705.163000000001,91.07,327.825,326.232,0.0
52540.0,STARLINK-3940,PAYLOAD,2022-05-19 14:00:01,15.80579919,0.0001599,53.2174,265.1938,31.4591,13.9137,-0.0049952,-0.00879788,0.0,0 STARLINK-3940,1 52540U 22051H   22139.58335648 -.00879788  00000-0 -49952-2 0  9995,2 52540  53.2174 265.1938 0001599  31.4591  13.9137 15.80579919  1303,6706.937,91.106,329.874,327.7290000000001,0.0
52540.0,STARLINK-3940,PAYLOAD,2022-05-19 22:00:00,15.79950163,0.0001314,53.2172,263.527,49.5744,93.1411,-0.0051382,-0.00878967,0.0,0 STARLINK-3940,1 52540U 22051H   22139.91667824 -.00878967  00000-0 -51382-2 0  9994,2 52540  53.2172 263.5270 0001314  49.5744  93.1411 15.79950163  1304,6708.719,91.142,331.465,329.702,0.0
52540.0,STARLINK-3940,PAYLOAD,2022-05-20 04:00:00,15.79474888,0.0001501999999999,53.2175,262.2764,38.5275,86.7499,-0.0052095,-0.00872622,0.0,0 STARLINK-3940,1 52540U 22051H   22140.16667824 -.00872622  00000-0 -52095-2 0  9997,2 52540  53.2175 262.2764 0001502  38.5275  86.7499 15.79474888  1520,6710.064,91.17,332.9369999999999,330.922,0.0
52540.0,STARLINK-3940,PAYLOAD,2022-05-20 14:00:01,15.78691373,0.000175,53.2176,260.1979,26.9136,308.35,-0.0054364,-0.00878108,0.0,0 STARLINK-3940,1 52540U 22051H   22140.58334491 -.00878108  00000-0 -54364-2 0  9990,2 52540  53.2176 260.1979 0001750  26.9136 308.3500 15.78691373  1309,6712.284000000002,91.215,335.324,332.975,0.0
52540.0,STARLINK-3940,PAYLOAD,2022-05-20 22:00:00,15.78061407,0.0001869,53.2171,258.5355,23.6566,46.747,-0.0055811,-0.008763,0.0,0 STARLINK-3940,1 52540U 22051H   22140.91667824 -.00876300  00000-0 -55811-2 0  9996,2 52540  53.2171 258.5355 0001869  23.6566  46.7470 15.78061407  1640,6714.071,91.251,337.191,334.681,0.0
52540.0,STARLINK-3940,PAYLOAD,2022-05-21 06:00:00,15.77432099,0.0001685,53.2172,256.8731,33.5529,131.2353,-0.0057454,-0.00876724,0.0,0 STARLINK-3940,1 52540U 22051H   22141.25001157 -.00876724  00000-0 -57454-2 0  9990,2 52540  53.2172 256.8731 0001685  33.5529 131.2353 15.77432099  1306,6715.856,91.288,338.853,336.59,0.0
52540.0,STARLINK-3940,PAYLOAD,2022-05-21 14:00:01,15.76802301,0.0001979,53.2173,255.216,27.5361,230.9441,-0.0059044,-0.00876077,0.0,0 STARLINK-3940,1 52540U 22051H   22141.58335648 -.00876077  00000-0 -59044-2 0  9999,2 52540  53.2173 255.2160 0001979  27.5361 230.9441 15.76802301  1300,6717.644,91.324,340.839,338.18,0.0
52540.0,STARLINK-3940,PAYLOAD,2022-05-21 20:00:01,15.76330563,0.000143,53.2172,253.9729,44.2728,193.8653,-0.0060203,-0.00874616,0.0,0 STARLINK-3940,1 52540U 22051H   22141.83334491 -.00874616  00000-0 -60203-2 0  9998,2 52540  53.2172 253.9729 0001430  44.2728 193.8653 15.76330563  1780,6718.985,91.351,341.81,339.889,0.0
52540.0,STARLINK-3940,PAYLOAD,2022-05-21 22:00:00,15.76174309,0.0001309,53.2174,253.5581,39.9361,311.3491,-0.0060802,-0.00876913,0.0,0 STARLINK-3940,1 52540U 22051H   22141.91667824 -.00876913  00000-0 -60802-2 0  9993,2 52540  53.2174 253.5581 0001309  39.9361 311.3491 15.76174309  1302,6719.429,91.36,342.173,340.414,0.0
52540.0,STARLINK-3940,PAYLOAD,2022-05-22 14:00:01,15.74913833,0.0002197,53.2175,250.2479,24.4262,150.3332,-0.0064037999999999,-0.00874186,0.0,0 STARLINK-3940,1 52540U 22051H   22142.58334491 -.00874186  00000-0 -64038-2 0  9993,2 52540  53.2175 250.2479 0002197  24.4262 150.3332 15.74913833  1900,6723.013000000001,91.434,346.355,343.401,0.0
52540.0,STARLINK-3940,PAYLOAD,2022-05-22 22:00:01,15.74287413,0.0001503,53.2172,248.5943,41.5721,223.8549,-0.0066252,-0.00879142,0.0,0 STARLINK-3940,1 52540U 22051H   22142.91668981 -.00879142  00000-0 -66252-2 0  9991,2 52540  53.2172 248.5943 0001503  41.5721 223.8549 15.74287413  1301,6724.797,91.47,347.672,345.651,0.0
52540.0,STARLINK-3940,PAYLOAD,2022-05-23 14:00:01,15.73207242,0.0001932,53.2172,245.2938,28.5535,55.7787,-3.7648e-05,-5.903e-05,0.0,0 STARLINK-3940,1 52540U 22051H   22143.58334491 -.00005903  00000-0 -37648-4 0  9996,2 52540  53.2172 245.2938 0001932  28.5535  55.7787 15.73207242  1300,6727.875,91.533,351.039,348.44,0.0
52540.0,STARLINK-3940,PAYLOAD,2022-05-23 16:00:00,15.73204394,0.0001998,53.2175,244.8816,30.0624,166.5043,2.6032e-06,-2.56e-06,0.0,0 STARLINK-3940,1 52540U 22051H   22143.66667824 -.00000256  00000-0  26032-5 0  9995,2 52540  53.2175 244.8816 0001998  30.0624 166.5043 15.73204394  2078,6727.8830000000025,91.533,351.092,348.403,0.0
52540.0,STARLINK-3940,PAYLOAD,2022-05-23 20:00:01,15.73264674,0.0001887,53.2203,244.0681,26.232,34.954,-3.9485e-05,-6.175e-05,0.0,0 STARLINK-3940,1 52540U 22051H   22143.83334491 -.00006175  00000-0 -39485-4 0  9997,2 52540  53.2203 244.0681 0001887  26.2320  34.9540 15.73264674  2100,6727.7109999999975,91.529,350.845,348.306,0.0
52540.0,STARLINK-3940,PAYLOAD,2022-05-23 22:00:01,15.73307635,0.0001805,53.2203,243.6551,27.806,145.684,-0.00075289,-0.0010546,0.0,0 STARLINK-3940,1 52540U 22051H   22143.91668981 -.00105460  00000-0 -75289-3 0  9998,2 52540  53.2203 243.6551 0001805  27.8060 145.6840 15.73307635  1308,6727.5880000000025,91.527,350.668,348.23900000000015,0.0
52540.0,STARLINK-3940,PAYLOAD,2022-05-24 04:00:00,15.73207818,0.0001705,53.2199,242.4166,31.122,119.0635,-0.00025124,-0.00035744,0.0,0 STARLINK-3940,1 52540U 22051H   22144.16667824 -.00035744  00000-0 -25124-3 0  9991,2 52540  53.2199 242.4166 0001705  31.1220 119.0635 15.73207818  2159,6727.873000000001,91.533,350.885,348.591,0.0
52540.0,STARLINK-3940,PAYLOAD,2022-05-24 12:30:44,15.73330515,6.979999999999999e-05,53.222,240.6615,71.9042,288.2054,0.00064687,0.00091672,0.0,0 STARLINK-3940,1 52540U 22051H   22144.52134745  .00091672  00000-0  64687-3 0  9999,2 52540  53.2220 240.6615 0000698  71.9042 288.2054 15.73330515  2219,6727.523,91.526,349.858,348.9190000000001,0.0
52540.0,STARLINK-3940,PAYLOAD,2022-05-24 22:00:00,15.73182829,0.000187,53.2194,238.7068,20.4971,59.7463,0.00021648,0.00029848,0.0,0 STARLINK-3940,1 52540U 22051H   22144.91667824  .00029848  00000-0  21648-3 0  9997,2 52540  53.2194 238.7068 0001870  20.4971  59.7463 15.73182829  2276,6727.944,91.534,351.06699999999995,348.551,0.0
52540.0,STARLINK-3940,PAYLOAD,2022-05-25 14:00:01,15.73202987,0.0002073,53.2184,235.4093,24.2467,233.8671,4.4052e-05,5.566e-05,0.0,0 STARLINK-3940,1 52540U 22051H   22145.58334491  .00005566  00000-0  44052-4 0  9998,2 52540  53.2184 235.4093 0002073  24.2467 233.8671 15.73202987  1302,6727.887,91.533,351.146,348.357,0.0
52540.0,STARLINK-3940,PAYLOAD,2022-05-25 20:31:51,15.73220293,0.0002535,53.2212,234.0598,20.4042,339.7079,0.00029043,0.00040374,0.0,0 STARLINK-3940,1 52540U 22051H   22145.85545589  .00040374  00000-0  29043-3 0  9998,2 52540  53.2212 234.0598 0002535  20.4042 339.7079 15.73220293  2353,6727.837,91.532,351.408,347.997,0.0
52540.0,STARLINK-3940,PAYLOAD,2022-05-26 05:40:43,15.73208388,0.0001533,53.2201,232.174,14.7117,345.3948,0.00022848,0.00031578,0.0,0 STARLINK-3940,1 52540U 22051H   22146.23661932  .00031578  00000-0  22848-3 0  9994,2 52540  53.2201 232.1740 0001533  14.7117 345.3948 15.73208388  2488,6727.871,91.533,350.76800000000014,348.705,0.0
52540.0,STARLINK-3940,PAYLOAD,2022-05-26 06:00:00,15.73270097,0.0002049,53.2183,232.1082,25.7696,50.244,-0.00027039,-0.00038513,0.0,0 STARLINK-3940,1 52540U 22051H   22146.25001157 -.00038513  00000-0 -27039-3 0  9998,2 52540  53.2183 232.1082 0002049  25.7696  50.2440 15.73270097  2488,6727.695,91.529,350.939,348.182,0.0
52540.0,STARLINK-3940,PAYLOAD,2022-05-26 11:46:37,15.73328335,0.0002614,53.2196,230.9164,18.1563,341.955,0.0011872,0.00170363,0.0,0 STARLINK-3940,1 52540U 22051H   22146.49071585  .00170363  00000-0  11872-2 0  9991,2 52540  53.2196 230.9164 0002614  18.1563 341.9550 15.73328335  2522,6727.529,91.526,351.153,347.636,0.0
52540.0,STARLINK-3940,PAYLOAD,2022-05-26 13:18:07,15.73208362,0.0003116,53.2195,230.6022,35.379,324.7437,0.00027196,0.00037738,0.0,0 STARLINK-3940,1 52540U 22051H   22146.55425795  .00037738  00000-0  27196-3 0  9999,2 52540  53.2195 230.6022 0003116  35.3790 324.7437 15.73208362  2465,6727.871,91.533,351.833,347.64,0.0
52540.0,STARLINK-3940,PAYLOAD,2022-05-26 19:24:03,15.7319937,0.0003064,53.2194,229.3446,29.0213,331.0977,0.00020703,0.00028536,0.0,0 STARLINK-3940,1 52540U 22051H   22146.80836878  .00028536  00000-0  20703-3 0  9998,2 52540  53.2194 229.3446 0003064  29.0213 331.0977 15.73199370  2571,6727.897,91.533,351.8230000000001,347.701,0.0
52540.0,STARLINK-3940,PAYLOAD,2022-05-26 22:00:00,15.72716341,0.0002234,53.2175,228.7995,20.024,233.9321,0.005083,0.00765776,0.0,0 STARLINK-3940,1 52540U 22051H   22146.91667824  .00765776  00000-0  50830-2 0  9990,2 52540  53.2175 228.7995 0002234  20.0240 233.9321 15.72716341  1306,6729.274,91.561,352.64300000000014,349.636,0.0
52540.0,STARLINK-3940,PAYLOAD,2022-05-27 14:00:01,15.73194513,0.0002418,53.218,225.5128,24.6607,47.1402,-0.00023342,-0.00033248,0.0,0 STARLINK-3940,1 52540U 22051H   22147.58334491 -.00033248  00000-0 -23342-3 0  9998,2 52540  53.2180 225.5128 0002418  24.6607  47.1402 15.73194513  1303,6727.911,91.534,351.403,348.149,0.0
